{
  "links" : {
    "next" : "https://api.nasa.gov/neo/rest/v1/feed?start_date=2008-07-23&end_date=2008-07-23&detailed=true&api_key=t0TVs3DtDT2H8Oy2Zy8m2eVrNsAVKAexjcZXUckd",
    "prev" : "https://api.nasa.gov/neo/rest/v1/feed?start_date=2008-07-21&end_date=2008-07-21&detailed=true&api_key=t0TVs3DtDT2H8Oy2Zy8m2eVrNsAVKAexjcZXUckd",
    "self" : "https://api.nasa.gov/neo/rest/v1/feed?start_date=2008-07-22&end_date=2008-07-22&detailed=true&api_key=t0TVs3DtDT2H8Oy2Zy8m2eVrNsAVKAexjcZXUckd"
  },
  "element_count" : 6,
  "near_earth_objects" : {
    "2008-07-22" : [ {
      "links" : {
        "self" : "https://api.nasa.gov/neo/rest/v1/neo/3423200?api_key=t0TVs3DtDT2H8Oy2Zy8m2eVrNsAVKAexjcZXUckd"
      },
      "neo_reference_id" : "3423200",
      "name" : "(2008 PK3)",
      "nasa_jpl_url" : "http://ssd.jpl.nasa.gov/sbdb.cgi?sstr=3423200",
      "absolute_magnitude_h" : 22.0,
      "estimated_diameter" : {
        "kilometers" : {
          "estimated_diameter_min" : 0.1058168859,
          "estimated_diameter_max" : 0.2366137501
        },
        "meters" : {
          "estimated_diameter_min" : 105.8168859331,
          "estimated_diameter_max" : 236.6137501138
        },
        "miles" : {
          "estimated_diameter_min" : 0.0657515442,
          "estimated_diameter_max" : 0.1470249225
        },
        "feet" : {
          "estimated_diameter_min" : 347.1682720448,
          "estimated_diameter_max" : 776.2918559233
        }
      },
      "is_potentially_hazardous_asteroid" : false,
      "close_approach_data" : [ {
        "close_approach_date" : "2008-07-22",
        "epoch_date_close_approach" : 1216710000000,
        "relative_velocity" : {
          "kilometers_per_second" : "17.1210318275",
          "kilometers_per_hour" : "61635.7145788333",
          "miles_per_hour" : "38298.0360948312"
        },
        "miss_distance" : {
          "astronomical" : "0.04379746",
          "lunar" : "17.0372123718",
          "kilometers" : "6552006.5",
          "miles" : "4071228.25"
        },
        "orbiting_body" : "Earth"
      } ],
      "orbital_data" : {
        "orbit_id" : "8",
        "orbit_determination_date" : "2017-04-06 09:03:07",
        "orbit_uncertainty" : "8",
        "minimum_orbit_intersection" : ".000320917",
        "jupiter_tisserand_invariant" : "3.674",
        "epoch_osculation" : "2454685.5",
        "eccentricity" : ".5983448162196453",
        "semi_major_axis" : "1.891514992135772",
        "inclination" : "17.08345383085665",
        "ascending_node_longitude" : "122.8350625027551",
        "orbital_period" : "950.1958048399462",
        "perihelion_distance" : ".7597368017895896",
        "perihelion_argument" : "108.989730624255",
        "aphelion_distance" : "3.023293182481954",
        "perihelion_time" : "2454623.942818249447",
        "mean_anomaly" : "23.32212510023855",
        "mean_motion" : ".3788692795382732",
        "equinox" : "J2000"
      }
    }, {
      "links" : {
        "self" : "https://api.nasa.gov/neo/rest/v1/neo/3170231?api_key=t0TVs3DtDT2H8Oy2Zy8m2eVrNsAVKAexjcZXUckd"
      },
      "neo_reference_id" : "3170231",
      "name" : "(2003 YL118)",
      "nasa_jpl_url" : "http://ssd.jpl.nasa.gov/sbdb.cgi?sstr=3170231",
      "absolute_magnitude_h" : 21.6,
      "estimated_diameter" : {
        "kilometers" : {
          "estimated_diameter_min" : 0.1272198785,
          "estimated_diameter_max" : 0.2844722965
        },
        "meters" : {
          "estimated_diameter_min" : 127.2198785394,
          "estimated_diameter_max" : 284.4722965033
        },
        "miles" : {
          "estimated_diameter_min" : 0.0790507431,
          "estimated_diameter_max" : 0.1767628354
        },
        "feet" : {
          "estimated_diameter_min" : 417.3880663071,
          "estimated_diameter_max" : 933.3080892598
        }
      },
      "is_potentially_hazardous_asteroid" : true,
      "close_approach_data" : [ {
        "close_approach_date" : "2008-07-22",
        "epoch_date_close_approach" : 1216710000000,
        "relative_velocity" : {
          "kilometers_per_second" : "14.6614532789",
          "kilometers_per_hour" : "52781.2318039039",
          "miles_per_hour" : "32796.2048394869"
        },
        "miss_distance" : {
          "astronomical" : "0.3764765482",
          "lunar" : "146.4493865967",
          "kilometers" : "56320092",
          "miles" : "34995684"
        },
        "orbiting_body" : "Earth"
      } ],
      "orbital_data" : {
        "orbit_id" : "26",
        "orbit_determination_date" : "2017-04-06 09:13:21",
        "orbit_uncertainty" : "0",
        "minimum_orbit_intersection" : ".0212139",
        "jupiter_tisserand_invariant" : "5.412",
        "epoch_osculation" : "2455713.5",
        "eccentricity" : ".4862072148864076",
        "semi_major_axis" : "1.130047953480842",
        "inclination" : "7.612151869425832",
        "ascending_node_longitude" : "278.8182347787312",
        "orbital_period" : "438.7768808682202",
        "perihelion_distance" : ".5806104853308371",
        "perihelion_argument" : "65.60857109513117",
        "aphelion_distance" : "1.679485421630847",
        "perihelion_time" : "2455570.117177803591",
        "mean_anomaly" : "117.640236396616",
        "mean_motion" : ".8204625532859842",
        "equinox" : "J2000"
      }
    }, {
      "links" : {
        "self" : "https://api.nasa.gov/neo/rest/v1/neo/3370284?api_key=t0TVs3DtDT2H8Oy2Zy8m2eVrNsAVKAexjcZXUckd"
      },
      "neo_reference_id" : "3370284",
      "name" : "(2007 ES)",
      "nasa_jpl_url" : "http://ssd.jpl.nasa.gov/sbdb.cgi?sstr=3370284",
      "absolute_magnitude_h" : 18.8,
      "estimated_diameter" : {
        "kilometers" : {
          "estimated_diameter_min" : 0.4619074603,
          "estimated_diameter_max" : 1.0328564805
        },
        "meters" : {
          "estimated_diameter_min" : 461.9074602816,
          "estimated_diameter_max" : 1032.8564805039
        },
        "miles" : {
          "estimated_diameter_min" : 0.2870159005,
          "estimated_diameter_max" : 0.6417870641
        },
        "feet" : {
          "estimated_diameter_min" : 1515.4444719902,
          "estimated_diameter_max" : 3388.6368554964
        }
      },
      "is_potentially_hazardous_asteroid" : false,
      "close_approach_data" : [ {
        "close_approach_date" : "2008-07-22",
        "epoch_date_close_approach" : 1216710000000,
        "relative_velocity" : {
          "kilometers_per_second" : "28.0971772626",
          "kilometers_per_hour" : "101149.8381454198",
          "miles_per_hour" : "62850.5758187471"
        },
        "miss_distance" : {
          "astronomical" : "0.407960596",
          "lunar" : "158.6966705322",
          "kilometers" : "61030036",
          "miles" : "37922308"
        },
        "orbiting_body" : "Earth"
      } ],
      "orbital_data" : {
        "orbit_id" : "20",
        "orbit_determination_date" : "2017-04-06 09:06:50",
        "orbit_uncertainty" : "1",
        "minimum_orbit_intersection" : ".35414",
        "jupiter_tisserand_invariant" : "4.036",
        "epoch_osculation" : "2458000.5",
        "eccentricity" : ".5950583803938772",
        "semi_major_axis" : "1.56966186250079",
        "inclination" : "35.20072454484011",
        "ascending_node_longitude" : "334.5304616137541",
        "orbital_period" : "718.3028451205977",
        "perihelion_distance" : ".6356214168350331",
        "perihelion_argument" : "19.30872544001352",
        "aphelion_distance" : "2.503702308166547",
        "perihelion_time" : "2458282.785446427649",
        "mean_anomaly" : "218.5237947973159",
        "mean_motion" : ".5011813644418445",
        "equinox" : "J2000"
      }
    } ]
  }
}